NORAD_CAT_ID,OBJECT_NAME,OBJECT_TYPE,EPOCH,MEAN_MOTION,ECCENTRICITY,INCLINATION,RA_OF_ASC_NODE,ARG_OF_PERICENTER,MEAN_ANOMALY,BSTAR,MEAN_MOTION_DOT,MEAN_MOTION_DDOT,TLE_LINE0,TLE_LINE1,TLE_LINE2,SEMIMAJOR_AXIS,PERIOD,APOGEE,PERIGEE,DECAYED
53802.0,STARLINK-4726,PAYLOAD,2023-05-14 21:22:50,15.08832939,0.0001061,53.2147,206.9328,95.0949,265.0164,6.9513e-06,-1.77e-06,0.0,0 STARLINK-4726,1 53802U 22111AF  23134.89086143 -.00000177  00000-0  69513-5 0  9992,2 53802  53.2147 206.9328 0001061  95.0949 265.0164 15.08832939 38357,6917.902,95.438,540.501,539.033,0.0
53802.0,STARLINK-4726,PAYLOAD,2023-05-15 11:41:18,15.08850665,9.49e-05,53.2147,204.2575,83.6043,276.5057,-7.4265e-05,-1.47e-05,0.0,0 STARLINK-4726,1 53802U 22111AF  23135.48701405 -.00001470  00000-0 -74265-4 0  9990,2 53802  53.2147 204.2575 0000949  83.6043 276.5057 15.08850665 37638,6917.848,95.437,540.369,539.056,0.0
53802.0,STARLINK-4726,PAYLOAD,2023-05-15 14:52:04,15.08847227,0.0001004,53.2146,203.662,89.4905,270.6202,9.9524e-06,-1.29e-06,0.0,0 STARLINK-4726,1 53802U 22111AF  23135.61949307 -.00000129  00000-0  99524-5 0  9995,2 53802  53.2146 203.6620 0001004  89.4905 270.6202 15.08847227 38464,6917.858,95.437,540.418,539.029,0.0
53802.0,STARLINK-4726,PAYLOAD,2023-05-16 13:07:28,15.08835302,0.0001058,53.2146,199.4986,84.2218,275.8895,0.00010077,1.316e-05,0.0,0 STARLINK-4726,1 53802U 22111AF  23136.54686226  .00001316  00000-0  10077-3 0  9998,2 53802  53.2146 199.4986 0001058  84.2218 275.8895 15.08835302 37791,6917.895,95.438,540.492,539.028,0.0
53802.0,STARLINK-4726,PAYLOAD,2023-05-16 21:04:24,15.08836844,0.0001019,53.2142,198.0117,87.2417,272.8692,9.4339e-05,1.214e-05,0.0,0 STARLINK-4726,1 53802U 22111AF  23136.87806196  .00001214  00000-0  94339-4 0  9995,2 53802  53.2142 198.0117 0001019  87.2417 272.8692 15.08836844 38659,6917.89,95.438,540.46,539.05,0.0
53802.0,STARLINK-4726,PAYLOAD,2023-05-17 12:58:15,15.08846747,0.0001068,53.2145,195.0382,88.6025,271.509,6.1485e-05,6.91e-06,0.0,0 STARLINK-4726,1 53802U 22111AF  23137.54045646  .00000691  00000-0  61485-4 0  9999,2 53802  53.2145 195.0382 0001068  88.6025 271.5090 15.08846747 37949,6917.86,95.437,540.464,538.986,0.0
53802.0,STARLINK-4726,PAYLOAD,2023-05-17 20:55:11,15.08842268,0.0001136,53.2145,193.5503,85.5299,274.5823,-4.0206e-05,-9.28e-06,0.0,0 STARLINK-4726,1 53802U 22111AF  23137.87166145 -.00000928  00000-0 -40206-4 0  9996,2 53802  53.2145 193.5503 0001136  85.5299 274.5823 15.08842268 38809,6917.873,95.437,540.524,538.953,0.0
53802.0,STARLINK-4726,PAYLOAD,2023-05-18 03:16:44,15.08834592,0.000113,53.2142,192.3612,84.0771,276.035,4.29e-05,3.95e-06,0.0,0 STARLINK-4726,1 53802U 22111AF  23138.13662505  .00000395  00000-0  42900-4 0  9996,2 53802  53.2142 192.3612 0001130  84.0771 276.0350 15.08834592 38035,6917.897,95.438,540.544,538.98,0.0
53802.0,STARLINK-4726,PAYLOAD,2023-05-18 11:13:39,15.08837583,0.0001111,53.2146,190.8746,83.1774,276.9344,2.2665e-05,7.3e-07,0.0,0 STARLINK-4726,1 53802U 22111AF  23138.46782404  .00000073  00000-0  22665-4 0  9992,2 53802  53.2146 190.8746 0001111  83.1774 276.9344 15.08837583 38891,6917.888,95.438,540.521,538.984,0.0
53802.0,STARLINK-4726,PAYLOAD,2023-05-19 03:07:31,15.0884272,0.0001129,53.2143,187.9008,82.4253,277.6867,3.7797e-05,3.14e-06,0.0,0 STARLINK-4726,1 53802U 22111AF  23139.13021995  .00000314  00000-0  37797-4 0  9998,2 53802  53.2143 187.9008 0001129  82.4253 277.6867 15.08842720 38188,6917.872,95.437,540.518,538.956,0.0
53802.0,STARLINK-4726,PAYLOAD,2023-05-19 20:36:43,15.08860435,0.0001076,53.2146,184.6301,82.866,277.2455,0.00016859,2.398e-05,0.0,0 STARLINK-4726,1 53802U 22111AF  23139.85884046  .00002398  00000-0  16859-3 0  9990,2 53802  53.2146 184.6301 0001076  82.8660 277.2455 15.08860435 39103,6917.818,95.436,540.427,538.939,0.0
53802.0,STARLINK-4726,PAYLOAD,2023-05-20 12:30:34,15.08862062,0.0001083,53.2146,181.6546,111.2943,248.8164,0.00021636,3.159e-05,0.0,0 STARLINK-4726,1 53802U 22111AF  23140.52123291  .00003159  00000-0  21636-3 0  9999,2 53802  53.2146 181.6546 0001083 111.2943 248.8164 15.08862062 39200,6917.813,95.436,540.427,538.929,0.0
53802.0,STARLINK-4726,PAYLOAD,2023-05-20 23:38:17,15.08842316,0.0001243,53.2147,179.5636,166.272,193.8306,0.00012944,1.773e-05,0.0,0 STARLINK-4726,1 53802U 22111AF  23140.98492125  .00001773  00000-0  12944-3 0  9996,2 53802  53.2147 179.5636 0001243 166.2720 193.8306 15.08842316 38462,6917.873,95.437,540.598,538.878,0.0
53802.0,STARLINK-4726,PAYLOAD,2023-05-21 07:35:14,15.08836542,0.000124,53.2156,178.0914,38.008,322.1,-4.9405e-05,-1.074e-05,0.0,0 STARLINK-4726,1 53802U 22111AF  23141.31613551 -.00001074  00000-0 -49405-4 0  9991,2 53802  53.2156 178.0914 0001240  38.0080 322.1000 15.08836542 38515,6917.891,95.438,540.614,538.898,0.0
53802.0,STARLINK-4726,PAYLOAD,2023-05-21 12:21:23,15.08837957,0.0001044,53.2152,177.1934,99.4567,260.6543,-9.6606e-05,-1.825e-05,0.0,0 STARLINK-4726,1 53802U 22111AF  23141.51485353 -.00001825  00000-0 -96606-4 0  9999,2 53802  53.2152 177.1934 0001044  99.4567 260.6543 15.08837957 39358,6917.887,95.438,540.474,539.029,0.0
53802.0,STARLINK-4726,PAYLOAD,2023-05-22 02:39:52,15.08830379,0.0001048,53.2144,174.5171,94.8858,265.2254,-0.00019288,-3.355e-05,0.0,0 STARLINK-4726,1 53802U 22111AF  23142.11102213 -.00003355  00000-0 -19288-3 0  9997,2 53802  53.2144 174.5171 0001048  94.8858 265.2254 15.08830379 38630,6917.91,95.438,540.5,539.05,0.0
53802.0,STARLINK-4726,PAYLOAD,2023-05-22 12:12:11,15.08834921,0.0001277,53.215,172.7362,124.6181,235.4931,-0.00020624,-3.568e-05,0.0,0 STARLINK-4726,1 53802U 22111AF  23142.50846140 -.00003568  00000-0 -20624-3 0  9996,2 53802  53.2150 172.7362 0001277 124.6181 235.4931 15.08834921 39509,6917.896,95.438,540.644,538.877,0.0
53802.0,STARLINK-4726,PAYLOAD,2023-05-22 18:33:43,15.08831771,0.0001176,53.215,171.5471,117.536,242.5751,-0.00015169,-2.701e-05,0.0,0 STARLINK-4726,1 53802U 22111AF  23142.77342340 -.00002701  00000-0 -15169-3 0  9994,2 53802  53.2150 171.5471 0001176 117.5360 242.5751 15.08831771 39548,6917.906,95.438,540.584,538.957,0.0
53802.0,STARLINK-4726,PAYLOAD,2023-05-23 07:16:49,15.08823616,9.96e-05,53.2149,169.1673,98.0425,262.068,6.7023e-05,7.79e-06,0.0,0 STARLINK-4726,1 53802U 22111AF  23143.30334773  .00000779  00000-0  67023-4 0  9993,2 53802  53.2149 169.1673 0000996  98.0425 262.0680 15.08823616 38813,6917.93,95.439,540.484,539.106,0.0
53802.0,STARLINK-4726,PAYLOAD,2023-05-23 18:24:31,15.08825219,9.7e-05,53.2149,167.0858,97.668,262.4422,0.00011783,1.587e-05,0.0,0 STARLINK-4726,1 53802U 22111AF  23143.76702997  .00001587  00000-0  11783-3 0  9999,2 53802  53.2149 167.0858 0000970  97.6680 262.4422 15.08825219 39691,6917.926,95.438,540.462,539.12,0.0
53802.0,STARLINK-4726,PAYLOAD,2023-05-24 10:18:22,15.0882992,9.44e-05,53.215,164.1119,95.155,264.955,0.00016991,2.417e-05,0.0,0 STARLINK-4726,1 53802U 22111AF  23144.42943189  .00002417  00000-0  16991-3 0  9992,2 53802  53.2150 164.1119 0000944  95.1550 264.9550 15.08829920 38984,6917.911,95.438,540.429,539.123,0.0
53802.0,STARLINK-4726,PAYLOAD,2023-05-26 05:13:47,15.08841915,0.0001005,53.2153,156.0818,87.172,272.9387,6.7325e-05,7.84e-06,0.0,0 STARLINK-4726,1 53802U 22111AF  23146.21791031  .00000784  00000-0  67325-4 0  9991,2 53802  53.2153 156.0818 0001005  87.1720 272.9387 15.08841915 39258,6917.875,95.437,540.435,539.044,0.0
53802.0,STARLINK-4726,PAYLOAD,2023-05-26 08:24:33,15.08844048,9.86e-05,53.2151,155.4866,89.6375,270.473,6.9264e-05,8.15e-06,0.0,0 STARLINK-4726,1 53802U 22111AF  23146.35038848  .00000815  00000-0  69264-4 0  9995,2 53802  53.2151 155.4866 0000986  89.6375 270.4730 15.08844048 40080,6917.868,95.437,540.415,539.051,0.0
53802.0,STARLINK-4726,PAYLOAD,2023-05-27 06:39:57,15.08841919,9.67e-05,53.2146,151.3241,91.1596,268.9507,2.1511e-05,5.5e-07,0.0,0 STARLINK-4726,1 53802U 22111AF  23147.27774913  .00000055  00000-0  21511-4 0  9996,2 53802  53.2146 151.3241 0000967  91.1596 268.9507 15.08841919 39411,6917.875,95.437,540.408,539.071,0.0
53802.0,STARLINK-4726,PAYLOAD,2023-05-27 17:47:39,15.08842117,9.66e-05,53.2147,149.2429,89.077,271.0333,2.6711e-05,1.37e-06,0.0,0 STARLINK-4726,1 53802U 22111AF  23147.74142818  .00000137  00000-0  26711-4 0  9999,2 53802  53.2147 149.2429 0000966  89.0770 271.0333 15.08842117 40296,6917.874,95.437,540.407,539.071,0.0
53802.0,STARLINK-4726,PAYLOAD,2023-05-28 06:30:44,15.08843045,9.98e-05,53.2149,146.864,90.1852,269.9255,3.887e-05,3.31e-06,0.0,0 STARLINK-4726,1 53802U 22111AF  23148.27134672  .00000331  00000-0  38870-4 0  9992,2 53802  53.2149 146.8640 0000998  90.1852 269.9255 15.08843045 40374,6917.871,95.437,540.426,539.046,0.0
53802.0,STARLINK-4726,PAYLOAD,2023-05-28 09:41:30,15.08843267,0.0001002,53.2149,146.2693,89.777,270.3337,3.9774e-05,3.45e-06,0.0,0 STARLINK-4726,1 53802U 22111AF  23148.40382628  .00000345  00000-0  39774-4 0  9992,2 53802  53.2149 146.2693 0001002  89.7770 270.3337 15.08843267 39580,6917.87,95.437,540.429,539.042,0.0
53802.0,STARLINK-4726,PAYLOAD,2023-05-29 09:32:17,15.08841098,0.0001009,53.2151,141.8087,88.145,271.9658,4.4741e-05,4.24e-06,0.0,0 STARLINK-4726,1 53802U 22111AF  23149.39742661  .00000424  00000-0  44741-4 0  9996,2 53802  53.2151 141.8087 0001009  88.1450 271.9658 15.08841098 40547,6917.877,95.437,540.44,539.044,0.0
53802.0,STARLINK-4726,PAYLOAD,2023-05-30 03:01:32,15.08835211,0.000102,53.2151,138.5372,87.5961,272.5148,-1.1545e-05,-4.71e-06,0.0,0 STARLINK-4726,1 53802U 22111AF  23150.12607314 -.00000471  00000-0 -11545-4 0  9994,2 53802  53.2151 138.5372 0001020  87.5961 272.5148 15.08835211 39842,6917.895,95.438,540.466,539.054,0.0
53802.0,STARLINK-4726,PAYLOAD,2023-05-30 06:12:18,15.08836429,0.0001023,53.2151,137.9425,87.2968,272.8141,-1.9556e-06,-3.19e-06,0.0,0 STARLINK-4726,1 53802U 22111AF  23150.25855229 -.00000319  00000-0 -19556-5 0  9990,2 53802  53.2151 137.9425 0001023  87.2968 272.8141 15.08836429 40672,6917.891,95.438,540.464,539.049,0.0
